start=new Date('2021-11-09T00:00:00.000Z').valueOf();
sats=[{"REF_FRAME":"TEME","SEMIMAJOR_AXIS":"6925.350","CENTER_NAME":"EARTH","MEAN_MOTION_DDOT":"0.0000000000000","MEAN_ELEMENT_THEORY":"SGP4","GP_ID":"189242669","OBJECT_ID":"2020-019AQ","ARG_OF_PERICENTER":"83.5843","MEAN_MOTION":"15.06399598","REV_AT_EPOCH":"9129","TLE_LINE2":"2 45398  53.0547  49.1925 0001291  83.5843 276.5293 15.06399598 91299","PERIOD":"95.592","OBJECT_NAME":"STARLINK-1312","RA_OF_ASC_NODE":"49.1925","RCS_SIZE":"LARGE","EPOCH":"2021-11-08T12:48:51.533856","TIME_SYSTEM":"UTC","NORAD_CAT_ID":"45398","PERIAPSIS":"546.321","COUNTRY_CODE":"US","APOAPSIS":"548.109","EPHEMERIS_TYPE":"0","INCLINATION":"53.0547","DECAY_DATE":null,"OBJECT_TYPE":"PAYLOAD","BSTAR":"0.00007619800000","SITE":"AFETR","MEAN_MOTION_DOT":"0.00000854","ECCENTRICITY":"0.00012910","FILE":"3208944","MEAN_ANOMALY":"276.5293","CLASSIFICATION_TYPE":"U","ELEMENT_SET_NO":"999","TLE_LINE1":"1 45398U 20019AQ  21312.53392979  .00000854  00000-0  76198-4 0  9999","LAUNCH_DATE":"2020-03-18"},{"ELEMENT_SET_NO":"999","LAUNCH_DATE":"2020-03-18","TLE_LINE1":"1 45399U 20019AR  21312.50906280  .00002298  00000-0  17315-3 0  9992","MEAN_ANOMALY":"267.7495","CLASSIFICATION_TYPE":"U","BSTAR":"0.00017315000000","SITE":"AFETR","FILE":"3209238","ECCENTRICITY":"0.00012710","MEAN_MOTION_DOT":"0.00002298","DECAY_DATE":null,"OBJECT_TYPE":"PAYLOAD","PERIAPSIS":"546.364","COUNTRY_CODE":"US","TIME_SYSTEM":"UTC","EPOCH":"2021-11-08T12:13:03.025920","NORAD_CAT_ID":"45399","APOAPSIS":"548.125","EPHEMERIS_TYPE":"0","INCLINATION":"53.0552","PERIOD":"95.593","OBJECT_NAME":"STARLINK-1255","TLE_LINE2":"2 45399  53.0552  39.3061 0001271  92.3639 267.7495 15.06389857 91481","RCS_SIZE":"LARGE","RA_OF_ASC_NODE":"39.3061","OBJECT_ID":"2020-019AR","CENTER_NAME":"EARTH","MEAN_MOTION_DDOT":"0.0000000000000","GP_ID":"189269927","MEAN_ELEMENT_THEORY":"SGP4","REV_AT_EPOCH":"9148","MEAN_MOTION":"15.06389857","ARG_OF_PERICENTER":"92.3639","REF_FRAME":"TEME","SEMIMAJOR_AXIS":"6925.380"},{"CLASSIFICATION_TYPE":"U","MEAN_ANOMALY":"285.1600","LAUNCH_DATE":"2020-03-18","TLE_LINE1":"1 45400U 20019AS  21312.52381933  .00006505  00000-0  45531-3 0  9995","ELEMENT_SET_NO":"999","OBJECT_TYPE":"PAYLOAD","DECAY_DATE":null,"ECCENTRICITY":"0.00011680","FILE":"3208938","MEAN_MOTION_DOT":"0.00006505","BSTAR":"0.00045531000000","SITE":"AFETR","RCS_SIZE":"LARGE","RA_OF_ASC_NODE":"39.2475","OBJECT_NAME":"STARLINK-1213","PERIOD":"95.593","TLE_LINE2":"2 45400  53.0554  39.2475 0001168  74.9518 285.1600 15.06388189 91413","EPHEMERIS_TYPE":"0","INCLINATION":"53.0554","APOAPSIS":"548.059","COUNTRY_CODE":"US","PERIAPSIS":"546.441","EPOCH":"2021-11-08T12:34:17.990112","TIME_SYSTEM":"UTC","NORAD_CAT_ID":"45400","SEMIMAJOR_AXIS":"6925.385","REF_FRAME":"TEME","REV_AT_EPOCH":"9141","MEAN_MOTION":"15.06388189","ARG_OF_PERICENTER":"74.9518","OBJECT_ID":"2020-019AS","GP_ID":"189242527","MEAN_ELEMENT_THEORY":"SGP4","CENTER_NAME":"EARTH","MEAN_MOTION_DDOT":"0.0000000000000"},{"OBJECT_ID":"2020-019AT","CENTER_NAME":"EARTH","MEAN_MOTION_DDOT":"0.0000000000000","GP_ID":"189281021","MEAN_ELEMENT_THEORY":"SGP4","REV_AT_EPOCH":"9148","MEAN_MOTION":"15.06398021","ARG_OF_PERICENTER":"72.6793","REF_FRAME":"TEME","SEMIMAJOR_AXIS":"6925.355","COUNTRY_CODE":"US","PERIAPSIS":"546.423","NORAD_CAT_ID":"45401","TIME_SYSTEM":"UTC","EPOCH":"2021-11-08T12:28:59.660544","APOAPSIS":"548.016","INCLINATION":"53.0549","EPHEMERIS_TYPE":"0","PERIOD":"95.592","OBJECT_NAME":"STARLINK-1256","TLE_LINE2":"2 45401  53.0549  39.2587 0001150  72.6793 287.4322 15.06398021 91482","RCS_SIZE":"LARGE","RA_OF_ASC_NODE":"39.2587","BSTAR":"0.00068421000000","SITE":"AFETR","FILE":"3209593","ECCENTRICITY":"0.00011500","MEAN_MOTION_DOT":"0.00009924","DECAY_DATE":null,"OBJECT_TYPE":"PAYLOAD","ELEMENT_SET_NO":"999","LAUNCH_DATE":"2020-03-18","TLE_LINE1":"1 45401U 20019AT  21312.52013496  .00009924  00000-0  68421-3 0  9993","MEAN_ANOMALY":"287.4322","CLASSIFICATION_TYPE":"U"},{"SITE":"AFETR","BSTAR":"0.00051518000000","MEAN_MOTION_DOT":"0.00007401","ECCENTRICITY":"0.00014470","FILE":"3208938","DECAY_DATE":null,"OBJECT_TYPE":"PAYLOAD","ELEMENT_SET_NO":"999","TLE_LINE1":"1 45402U 20019AU  21312.51643210  .00007401  00000-0  51518-3 0  9993","LAUNCH_DATE":"2020-03-18","MEAN_ANOMALY":"282.9815","CLASSIFICATION_TYPE":"U","CENTER_NAME":"EARTH","MEAN_MOTION_DDOT":"0.0000000000000","GP_ID":"189242524","MEAN_ELEMENT_THEORY":"SGP4","OBJECT_ID":"2020-019AU","MEAN_MOTION":"15.06404648","ARG_OF_PERICENTER":"77.1335","REV_AT_EPOCH":"9148","REF_FRAME":"TEME","SEMIMAJOR_AXIS":"6925.334","TIME_SYSTEM":"UTC","EPOCH":"2021-11-08T12:23:39.733440","NORAD_CAT_ID":"45402","PERIAPSIS":"546.197","COUNTRY_CODE":"US","APOAPSIS":"548.201","EPHEMERIS_TYPE":"0","INCLINATION":"53.0546","TLE_LINE2":"2 45402  53.0546  39.2682 0001447  77.1335 282.9815 15.06404648 91487","PERIOD":"95.592","OBJECT_NAME":"STARLINK-1257","RA_OF_ASC_NODE":"39.2682","RCS_SIZE":"LARGE"},{"TIME_SYSTEM":"UTC","NORAD_CAT_ID":"45403","EPOCH":"2021-11-08T12:44:53.624544","COUNTRY_CODE":"US","PERIAPSIS":"546.179","INCLINATION":"53.0554","EPHEMERIS_TYPE":"0","APOAPSIS":"548.185","TLE_LINE2":"2 45403  53.0554  39.2108 0001448  81.6363 278.4790 15.06410245 91484","OBJECT_NAME":"STARLINK-1259","PERIOD":"95.591","RA_OF_ASC_NODE":"39.2108","RCS_SIZE":"LARGE","MEAN_ELEMENT_THEORY":"SGP4","GP_ID":"189242660","CENTER_NAME":"EARTH","MEAN_MOTION_DDOT":"0.0000000000000","OBJECT_ID":"2020-019AV","MEAN_MOTION":"15.06410245","ARG_OF_PERICENTER":"81.6363","REV_AT_EPOCH":"9148","REF_FRAME":"TEME","SEMIMAJOR_AXIS":"6925.317","ELEMENT_SET_NO":"999","TLE_LINE1":"1 45403U 20019AV  21312.53117621  .00009221  00000-0  63695-3 0  9999","LAUNCH_DATE":"2020-03-18","MEAN_ANOMALY":"278.4790","CLASSIFICATION_TYPE":"U","BSTAR":"0.00063695000000","SITE":"AFETR","MEAN_MOTION_DOT":"0.00009221","FILE":"3208938","ECCENTRICITY":"0.00014480","DECAY_DATE":null,"OBJECT_TYPE":"PAYLOAD"},{"COUNTRY_CODE":"US","PERIAPSIS":"546.295","EPOCH":"2021-11-08T13:00:50.631552","TIME_SYSTEM":"UTC","NORAD_CAT_ID":"45404","INCLINATION":"53.0541","EPHEMERIS_TYPE":"0","APOAPSIS":"548.135","OBJECT_NAME":"STARLINK-1260","PERIOD":"95.592","TLE_LINE2":"2 45404  53.0541  39.1546 0001328  82.8412 277.2727 15.06399553 91396","RCS_SIZE":"LARGE","RA_OF_ASC_NODE":"39.1546","OBJECT_ID":"2020-019AW","GP_ID":"189281057","MEAN_ELEMENT_THEORY":"SGP4","MEAN_MOTION_DDOT":"0.0000000000000","CENTER_NAME":"EARTH","MEAN_MOTION":"15.06399553","ARG_OF_PERICENTER":"82.8412","REV_AT_EPOCH":"9139","REF_FRAME":"TEME","SEMIMAJOR_AXIS":"6925.350","ELEMENT_SET_NO":"999","LAUNCH_DATE":"2020-03-18","TLE_LINE1":"1 45404U 20019AW  21312.54225268  .00008132  00000-0  56420-3 0  9996","MEAN_ANOMALY":"277.2727","CLASSIFICATION_TYPE":"U","BSTAR":"0.00056420000000","SITE":"AFETR","FILE":"3209567","ECCENTRICITY":"0.00013280","MEAN_MOTION_DOT":"0.00008132","DECAY_DATE":null,"OBJECT_TYPE":"PAYLOAD"},{"PERIAPSIS":"546.389","COUNTRY_CODE":"US","TIME_SYSTEM":"UTC","NORAD_CAT_ID":"45405","EPOCH":"2021-11-08T12:39:36.641088","INCLINATION":"53.0560","EPHEMERIS_TYPE":"0","APOAPSIS":"548.041","OBJECT_NAME":"STARLINK-1263","PERIOD":"95.592","TLE_LINE2":"2 45405  53.0560  39.2343 0001193  77.9019 282.2103 15.06399614 91394","RCS_SIZE":"LARGE","RA_OF_ASC_NODE":"39.2343","OBJECT_ID":"2020-019AX","MEAN_ELEMENT_THEORY":"SGP4","GP_ID":"189242661","CENTER_NAME":"EARTH","MEAN_MOTION_DDOT":"0.0000000000000","ARG_OF_PERICENTER":"77.9019","REV_AT_EPOCH":"9139","MEAN_MOTION":"15.06399614","REF_FRAME":"TEME","SEMIMAJOR_AXIS":"6925.350","ELEMENT_SET_NO":"999","LAUNCH_DATE":"2020-03-18","TLE_LINE1":"1 45405U 20019AX  21312.52750742  .00012016  00000-0  82423-3 0  9993","MEAN_ANOMALY":"282.2103","CLASSIFICATION_TYPE":"U","SITE":"AFETR","BSTAR":"0.00082423000000","FILE":"3208938","ECCENTRICITY":"0.00011930","MEAN_MOTION_DOT":"0.00012016","DECAY_DATE":null,"OBJECT_TYPE":"PAYLOAD"},{"CLASSIFICATION_TYPE":"U","MEAN_ANOMALY":"278.3593","TLE_LINE1":"1 45406U 20019AY  21312.53488531  .00009758  00000-0  67330-3 0  9998","LAUNCH_DATE":"2020-03-18","ELEMENT_SET_NO":"999","OBJECT_TYPE":"PAYLOAD","DECAY_DATE":null,"MEAN_MOTION_DOT":"0.00009758","ECCENTRICITY":"0.00012920","FILE":"3209166","SITE":"AFETR","BSTAR":"0.00067330000000","RA_OF_ASC_NODE":"39.1827","RCS_SIZE":"LARGE","TLE_LINE2":"2 45406  53.0546  39.1827 0001292  81.7542 278.3593 15.06387568 91393","OBJECT_NAME":"STARLINK-1265","PERIOD":"95.593","EPHEMERIS_TYPE":"0","INCLINATION":"53.0546","APOAPSIS":"548.146","TIME_SYSTEM":"UTC","EPOCH":"2021-11-08T12:50:14.090784","NORAD_CAT_ID":"45406","COUNTRY_CODE":"US","PERIAPSIS":"546.357","SEMIMAJOR_AXIS":"6925.387","REF_FRAME":"TEME","ARG_OF_PERICENTER":"81.7542","MEAN_MOTION":"15.06387568","REV_AT_EPOCH":"9139","MEAN_ELEMENT_THEORY":"SGP4","GP_ID":"189247929","MEAN_MOTION_DDOT":"0.0000000000000","CENTER_NAME":"EARTH","OBJECT_ID":"2020-019AY"},{"DECAY_DATE":null,"OBJECT_TYPE":"PAYLOAD","SITE":"AFETR","BSTAR":"0.00014217000000","MEAN_MOTION_DOT":"0.00001836","ECCENTRICITY":"0.00012960","FILE":"3209238","MEAN_ANOMALY":"291.6802","CLASSIFICATION_TYPE":"U","ELEMENT_SET_NO":"999","TLE_LINE1":"1 45407U 20019AZ  21312.54865967  .00001836  00000-0  14217-3 0  9997","LAUNCH_DATE":"2020-03-18","REF_FRAME":"TEME","SEMIMAJOR_AXIS":"6925.384","CENTER_NAME":"EARTH","MEAN_MOTION_DDOT":"0.0000000000000","MEAN_ELEMENT_THEORY":"SGP4","GP_ID":"189269928","OBJECT_ID":"2020-019AZ","MEAN_MOTION":"15.06388417","ARG_OF_PERICENTER":"68.4325","REV_AT_EPOCH":"9139","TLE_LINE2":"2 45407  53.0564  39.1188 0001296  68.4325 291.6802 15.06388417 91394","PERIOD":"95.593","OBJECT_NAME":"STARLINK-1275","RA_OF_ASC_NODE":"39.1188","RCS_SIZE":"LARGE","EPOCH":"2021-11-08T13:10:04.195488","TIME_SYSTEM":"UTC","NORAD_CAT_ID":"45407","PERIAPSIS":"546.352","COUNTRY_CODE":"US","APOAPSIS":"548.147","INCLINATION":"53.0564","EPHEMERIS_TYPE":"0"}];
